[{"OBJECT_NAME":"MBZ-SAT","OBJECT_ID":"2025-009T","EPOCH":"2026-03-09T17:04:51.088224","MEAN_MOTION":15.18507845,"ECCENTRICITY":0.00021634,"INCLINATION":97.403,"RA_OF_ASC_NODE":149.1701,"ARG_OF_PERICENTER":323.4829,"MEAN_ANOMALY":36.6257,"EPHEMERIS_TYPE":0,"CLASSIFICATION_TYPE":"U","NORAD_CAT_ID":62626,"ELEMENT_SET_NO":999,"REV_AT_EPOCH":6359,"BSTAR":3.31466e-7,"MEAN_MOTION_DOT":-5.9e-7,"MEAN_MOTION_DDOT":0},{"OBJECT_NAME":"TIANYI A","OBJECT_ID":"2025-103A","EPOCH":"2026-03-09T23:28:50.058624","MEAN_MOTION":15.19175591,"ECCENTRICITY":0.00016783,"INCLINATION":97.412,"RA_OF_ASC_NODE":143.3859,"ARG_OF_PERICENTER":88.7813,"MEAN_ANOMALY":271.3614,"EPHEMERIS_TYPE":0,"CLASSIFICATION_TYPE":"U","NORAD_CAT_ID":64048,"ELEMENT_SET_NO":999,"REV_AT_EPOCH":4501,"BSTAR":0.0001128032,"MEAN_MOTION_DOT":2.305e-5,"MEAN_MOTION_DDOT":0}]
